start=new Date('2023-07-02T00:00:00.000Z').valueOf();
sats=[{"OBJECT_NAME":"STARLINK-5555","APOAPSIS":"560.161","TLE_LINE2":"2 55386  43.0031 254.6410 0001556 272.7599  87.3065 15.02535884 24118","INCLINATION":"43.0031","RA_OF_ASC_NODE":"254.6410","EPOCH":"2023-06-30T14:32:06.523584","PERIAPSIS":"558.002","CENTER_NAME":"EARTH","GP_ID":"234634133","FILE":"3946096","DECAY_DATE":null,"MEAN_ANOMALY":"87.3065","LAUNCH_DATE":"2023-01-26","MEAN_MOTION":"15.02535884","COUNTRY_CODE":"US","MEAN_MOTION_DOT":"0.00000376","CLASSIFICATION_TYPE":"U","TLE_LINE1":"1 55386U 23013BH  23181.60563106  .00000376  00000-0  42928-4 0  9993","SEMIMAJOR_AXIS":"6937.217","PERIOD":"95.838","SITE":"AFETR","BSTAR":"0.00004292800000","REV_AT_EPOCH":"2411","MEAN_MOTION_DDOT":"0.0000000000000","MEAN_ELEMENT_THEORY":"SGP4","ELEMENT_SET_NO":"999","EPHEMERIS_TYPE":"0","RCS_SIZE":"LARGE","NORAD_CAT_ID":"55386","OBJECT_TYPE":"PAYLOAD","ARG_OF_PERICENTER":"272.7599","TIME_SYSTEM":"UTC","REF_FRAME":"TEME","ECCENTRICITY":"0.00015560","OBJECT_ID":"2023-013BH"},{"ARG_OF_PERICENTER":"266.6502","OBJECT_TYPE":"PAYLOAD","TIME_SYSTEM":"UTC","OBJECT_ID":"2023-014A","ECCENTRICITY":"0.00032370","REF_FRAME":"TEME","NORAD_CAT_ID":"55391","EPHEMERIS_TYPE":"0","ELEMENT_SET_NO":"999","RCS_SIZE":"LARGE","REV_AT_EPOCH":"2377","BSTAR":"0.00000885730000","MEAN_MOTION_DDOT":"0.0000000000000","MEAN_ELEMENT_THEORY":"SGP4","CLASSIFICATION_TYPE":"U","SEMIMAJOR_AXIS":"6791.285","TLE_LINE1":"1 55391U 23014A   23181.94752785  .00000355  00000-0  88573-5 0  9994","PERIOD":"92.830","SITE":"AFWTR","MEAN_ANOMALY":"93.4314","MEAN_MOTION":"15.51225091","LAUNCH_DATE":"2023-01-31","COUNTRY_CODE":"US","MEAN_MOTION_DOT":"0.00000355","PERIAPSIS":"410.952","EPOCH":"2023-06-30T22:44:26.406240","GP_ID":"234641175","DECAY_DATE":null,"FILE":"3946407","CENTER_NAME":"EARTH","OBJECT_NAME":"STARLINK-5077","TLE_LINE2":"2 55391  69.9967  27.7803 0003237 266.6502  93.4314 15.51225091 23774","APOAPSIS":"415.348","RA_OF_ASC_NODE":"27.7803","INCLINATION":"69.9967"},{"EPHEMERIS_TYPE":"0","ELEMENT_SET_NO":"999","RCS_SIZE":"LARGE","MEAN_MOTION_DDOT":"0.0000000000000","REV_AT_EPOCH":"2390","BSTAR":"0.00000467610000","MEAN_ELEMENT_THEORY":"SGP4","ARG_OF_PERICENTER":"266.9894","OBJECT_TYPE":"PAYLOAD","OBJECT_ID":"2023-014B","ECCENTRICITY":"0.00036220","REF_FRAME":"TEME","TIME_SYSTEM":"UTC","NORAD_CAT_ID":"55392","GP_ID":"234655479","FILE":"3946979","DECAY_DATE":null,"CENTER_NAME":"EARTH","PERIAPSIS":"356.684","EPOCH":"2023-07-01T16:28:34.964256","OBJECT_NAME":"STARLINK-5085","RA_OF_ASC_NODE":"25.1335","INCLINATION":"69.9970","TLE_LINE2":"2 55392  69.9970  25.1335 0003622 266.9894  93.0887 15.69921238 23907","APOAPSIS":"361.565","SEMIMAJOR_AXIS":"6737.259","TLE_LINE1":"1 55392U 23014B   23182.68651579  .00000349  00000-0  46761-5 0  9992","CLASSIFICATION_TYPE":"U","SITE":"AFWTR","PERIOD":"91.724","MEAN_MOTION":"15.69921238","LAUNCH_DATE":"2023-01-31","MEAN_ANOMALY":"93.0887","MEAN_MOTION_DOT":"0.00000349","COUNTRY_CODE":"US"},{"TIME_SYSTEM":"UTC","ECCENTRICITY":"0.00029570","OBJECT_ID":"2023-014C","REF_FRAME":"TEME","ARG_OF_PERICENTER":"266.3823","OBJECT_TYPE":"PAYLOAD","NORAD_CAT_ID":"55393","RCS_SIZE":"LARGE","EPHEMERIS_TYPE":"0","ELEMENT_SET_NO":"999","MEAN_ELEMENT_THEORY":"SGP4","REV_AT_EPOCH":"2377","BSTAR":"0.00000662810000","MEAN_MOTION_DDOT":"0.0000000000000","PERIOD":"92.830","SITE":"AFWTR","CLASSIFICATION_TYPE":"U","SEMIMAJOR_AXIS":"6791.287","TLE_LINE1":"1 55393U 23014C   23181.94775824  .00000225  00000-0  66281-5 0  9993","COUNTRY_CODE":"US","MEAN_MOTION_DOT":"0.00000225","MEAN_ANOMALY":"93.7025","MEAN_MOTION":"15.51224309","LAUNCH_DATE":"2023-01-31","PERIAPSIS":"411.144","EPOCH":"2023-06-30T22:44:46.311936","GP_ID":"234641166","DECAY_DATE":null,"FILE":"3946407","CENTER_NAME":"EARTH","TLE_LINE2":"2 55393  69.9973  27.7822 0002957 266.3823  93.7025 15.51224309 23778","APOAPSIS":"415.161","RA_OF_ASC_NODE":"27.7822","INCLINATION":"69.9973","OBJECT_NAME":"STARLINK-4786"},{"TIME_SYSTEM":"UTC","REF_FRAME":"TEME","ECCENTRICITY":"0.00034550","OBJECT_ID":"2023-014D","OBJECT_TYPE":"PAYLOAD","ARG_OF_PERICENTER":"267.1903","NORAD_CAT_ID":"55394","RCS_SIZE":"LARGE","ELEMENT_SET_NO":"999","EPHEMERIS_TYPE":"0","MEAN_ELEMENT_THEORY":"SGP4","BSTAR":"-0.01515200000000","REV_AT_EPOCH":"2388","MEAN_MOTION_DDOT":"0.0000000000000","PERIOD":"92.565","SITE":"AFWTR","CLASSIFICATION_TYPE":"U","TLE_LINE1":"1 55394U 23014D   23182.58334491 -.00946218  00000-0 -15152-1 0  9996","SEMIMAJOR_AXIS":"6778.362","COUNTRY_CODE":"US","MEAN_MOTION_DOT":"-0.00946218","MEAN_ANOMALY":"25.9473","LAUNCH_DATE":"2023-01-31","MEAN_MOTION":"15.55663244","EPOCH":"2023-07-01T14:00:01.000224","PERIAPSIS":"397.885","CENTER_NAME":"EARTH","FILE":"3946729","GP_ID":"234648639","DECAY_DATE":null,"APOAPSIS":"402.569","TLE_LINE2":"2 55394  69.9998  25.6463 0003455 267.1903  25.9473 15.55663244 23881","RA_OF_ASC_NODE":"25.6463","INCLINATION":"69.9998","OBJECT_NAME":"STARLINK-5230"},{"MEAN_ELEMENT_THEORY":"SGP4","BSTAR":"-0.01089900000000","REV_AT_EPOCH":"2388","MEAN_MOTION_DDOT":"0.0000000000000","RCS_SIZE":"LARGE","ELEMENT_SET_NO":"999","EPHEMERIS_TYPE":"0","NORAD_CAT_ID":"55395","TIME_SYSTEM":"UTC","REF_FRAME":"TEME","OBJECT_ID":"2023-014E","ECCENTRICITY":"0.00035340","OBJECT_TYPE":"PAYLOAD","ARG_OF_PERICENTER":"267.9231","APOAPSIS":"378.055","TLE_LINE2":"2 55395  69.9992  25.4637 0003534 267.9231 182.7288 15.64156430 23887","INCLINATION":"69.9992","RA_OF_ASC_NODE":"25.4637","OBJECT_NAME":"STARLINK-5274","EPOCH":"2023-07-01T14:00:01.000224","PERIAPSIS":"373.281","CENTER_NAME":"EARTH","FILE":"3946729","GP_ID":"234648640","DECAY_DATE":null,"COUNTRY_CODE":"US","MEAN_MOTION_DOT":"-0.00943063","MEAN_ANOMALY":"182.7288","LAUNCH_DATE":"2023-01-31","MEAN_MOTION":"15.64156430","PERIOD":"92.062","SITE":"AFWTR","CLASSIFICATION_TYPE":"U","TLE_LINE1":"1 55395U 23014E   23182.58334491 -.00943063  00000-0 -10899-1 0  9995","SEMIMAJOR_AXIS":"6753.803"},{"PERIAPSIS":"398.395","EPOCH":"2023-07-01T14:00:01.000224","DECAY_DATE":null,"GP_ID":"234649141","FILE":"3946729","CENTER_NAME":"EARTH","OBJECT_NAME":"STARLINK-5283","TLE_LINE2":"2 55396  69.9997  25.6534 0003435 266.1064  20.7250 15.55492433 23882","APOAPSIS":"403.052","RA_OF_ASC_NODE":"25.6534","INCLINATION":"69.9997","CLASSIFICATION_TYPE":"U","TLE_LINE1":"1 55396U 23014F   23182.58334491 -.00946199  00000-0 -15248-1 0  9992","SEMIMAJOR_AXIS":"6778.859","PERIOD":"92.575","SITE":"AFWTR","MEAN_ANOMALY":"20.7250","MEAN_MOTION":"15.55492433","LAUNCH_DATE":"2023-01-31","COUNTRY_CODE":"US","MEAN_MOTION_DOT":"-0.00946199","EPHEMERIS_TYPE":"0","ELEMENT_SET_NO":"999","RCS_SIZE":"LARGE","REV_AT_EPOCH":"2388","BSTAR":"-0.01524800000000","MEAN_MOTION_DDOT":"0.0000000000000","MEAN_ELEMENT_THEORY":"SGP4","ARG_OF_PERICENTER":"266.1064","OBJECT_TYPE":"PAYLOAD","TIME_SYSTEM":"UTC","OBJECT_ID":"2023-014F","ECCENTRICITY":"0.00034350","REF_FRAME":"TEME","NORAD_CAT_ID":"55396"},{"NORAD_CAT_ID":"55397","REF_FRAME":"TEME","OBJECT_ID":"2023-014G","ECCENTRICITY":"0.00037110","TIME_SYSTEM":"UTC","OBJECT_TYPE":"PAYLOAD","ARG_OF_PERICENTER":"269.0712","MEAN_ELEMENT_THEORY":"SGP4","MEAN_MOTION_DDOT":"0.0000000000000","BSTAR":"0.00001192700000","REV_AT_EPOCH":"2390","RCS_SIZE":"LARGE","ELEMENT_SET_NO":"999","EPHEMERIS_TYPE":"0","MEAN_MOTION_DOT":"0.00001222","COUNTRY_CODE":"US","LAUNCH_DATE":"2023-01-31","MEAN_MOTION":"15.69930245","MEAN_ANOMALY":"91.0059","SITE":"AFWTR","PERIOD":"91.724","SEMIMAJOR_AXIS":"6737.234","TLE_LINE1":"1 55397U 23014G   23182.68916973  .00001222  00000-0  11927-4 0  9995","CLASSIFICATION_TYPE":"U","INCLINATION":"69.9972","RA_OF_ASC_NODE":"25.1300","APOAPSIS":"361.599","TLE_LINE2":"2 55397  69.9972  25.1300 0003711 269.0712  91.0059 15.69930245 23905","OBJECT_NAME":"STARLINK-5224","CENTER_NAME":"EARTH","GP_ID":"234655986","FILE":"3947004","DECAY_DATE":null,"EPOCH":"2023-07-01T16:32:24.264672","PERIAPSIS":"356.598"},{"SEMIMAJOR_AXIS":"6778.915","TLE_LINE1":"1 55398U 23014H   23182.58334491 -.00946532  00000-0 -15265-1 0  9994","CLASSIFICATION_TYPE":"U","SITE":"AFWTR","PERIOD":"92.576","MEAN_MOTION":"15.55472908","LAUNCH_DATE":"2023-01-31","MEAN_ANOMALY":"19.0218","MEAN_MOTION_DOT":"-0.00946532","COUNTRY_CODE":"US","GP_ID":"234649364","FILE":"3946747","DECAY_DATE":null,"CENTER_NAME":"EARTH","PERIAPSIS":"398.459","EPOCH":"2023-07-01T14:00:01.000224","OBJECT_NAME":"STARLINK-5275","RA_OF_ASC_NODE":"25.6547","INCLINATION":"69.9998","TLE_LINE2":"2 55398  69.9998  25.6547 0003425 266.6862  19.0218 15.55472908 23889","APOAPSIS":"403.102","ARG_OF_PERICENTER":"266.6862","OBJECT_TYPE":"PAYLOAD","OBJECT_ID":"2023-014H","ECCENTRICITY":"0.00034250","REF_FRAME":"TEME","TIME_SYSTEM":"UTC","NORAD_CAT_ID":"55398","EPHEMERIS_TYPE":"0","ELEMENT_SET_NO":"999","RCS_SIZE":"LARGE","MEAN_MOTION_DDOT":"0.0000000000000","REV_AT_EPOCH":"2388","BSTAR":"-0.01526500000000","MEAN_ELEMENT_THEORY":"SGP4"},{"ELEMENT_SET_NO":"999","EPHEMERIS_TYPE":"0","RCS_SIZE":"LARGE","BSTAR":"-0.01523000000000","REV_AT_EPOCH":"2388","MEAN_MOTION_DDOT":"0.0000000000000","MEAN_ELEMENT_THEORY":"SGP4","OBJECT_TYPE":"PAYLOAD","ARG_OF_PERICENTER":"267.3055","TIME_SYSTEM":"UTC","REF_FRAME":"TEME","ECCENTRICITY":"0.00034380","OBJECT_ID":"2023-014J","NORAD_CAT_ID":"55399","EPOCH":"2023-07-01T14:00:01.000224","PERIAPSIS":"398.277","CENTER_NAME":"EARTH","FILE":"3946747","GP_ID":"234649860","DECAY_DATE":null,"OBJECT_NAME":"STARLINK-5276","APOAPSIS":"402.939","TLE_LINE2":"2 55399  69.9997  25.6509 0003438 267.3055  21.7701 15.55532204 23886","RA_OF_ASC_NODE":"25.6509","INCLINATION":"69.9997","CLASSIFICATION_TYPE":"U","TLE_LINE1":"1 55399U 23014J   23182.58334491 -.00946451  00000-0 -15230-1 0  9997","SEMIMAJOR_AXIS":"6778.743","PERIOD":"92.573","SITE":"AFWTR","MEAN_ANOMALY":"21.7701","LAUNCH_DATE":"2023-01-31","MEAN_MOTION":"15.55532204","COUNTRY_CODE":"US","MEAN_MOTION_DOT":"-0.00946451"}];
